{"type": "FeatureCollection", "features": [ {"type": "Feature", "properties": {"norad_id": 37834, "name": "INTELSAT 18 (IS-18)", "group": "intelsat", "lat": -0.005590587497513927, "lon": -26.427289182635544, "alt_km": 35782.85133507521, "timestamp": "2025-12-10T04:57:29.273829+00:00", "meta": {"OBJECT_NAME": "INTELSAT 18 (IS-18)", "OBJECT_ID": "2011-056A", "EPOCH": "2025-12-09T14:25:47.756352", "MEAN_MOTION": 1.00271498, "ECCENTRICITY": 0.0002054, "INCLINATION": 0.0172, "RA_OF_ASC_NODE": 343.0043, "ARG_OF_PERICENTER": 282.6647, "MEAN_ANOMALY": 209.3657, "EPHEMERIS_TYPE": 0, "CLASSIFICATION_TYPE": "U", "NORAD_CAT_ID": 37834, "ELEMENT_SET_NO": 999, "REV_AT_EPOCH": 5191, "BSTAR": 0, "MEAN_MOTION_DOT": 5.5e-07, "MEAN_MOTION_DDOT": 0}, "tle": {"line1": "1 37834U 11056A   25343.60124718  .00000055  00000+0  00000+0 0  9992", "line2": "2 37834   0.0172 343.0043 0002054 282.6647 209.3657  1.00271498 51910"}}, "geometry": {"type": "Point", "coordinates": [-26.427289182635544, -0.005590587497513927]}}, {"type": "Feature", "properties": {"norad_id": 38098, "name": "INTELSAT 22 (IS-22)", "group": "intelsat", "lat": -0.03422350123506449, "lon": -134.3292446733341, "alt_km": 35780.251592779074, "timestamp": "2025-12-10T04:57:29.273841+00:00", "meta": {"OBJECT_NAME": "INTELSAT 22 (IS-22)", "OBJECT_ID": "2012-011A", "EPOCH": "2025-12-09T17:50:38.679072", "MEAN_MOTION": 1.00274462, "ECCENTRICITY": 0.0001559, "INCLINATION": 0.0178, "RA_OF_ASC_NODE": 314.4402, "ARG_OF_PERICENTER": 310.9545, "MEAN_ANOMALY": 153.1189, "EPHEMERIS_TYPE": 0, "CLASSIFICATION_TYPE": "U", "NORAD_CAT_ID": 38098, "ELEMENT_SET_NO": 999, "REV_AT_EPOCH": 528, "BSTAR": 0, "MEAN_MOTION_DOT": -5.7e-07, "MEAN_MOTION_DDOT": 0}, "tle": {"line1": "1 38098U 12011A   25343.74350323 -.00000057  00000+0  00000+0 0  9998", "line2": "2 38098   0.0178 314.4402 0001559 310.9545 153.1189  1.00274462  5280"}}, "geometry": {"type": "Point", "coordinates": [-134.3292446733341, -0.03422350123506449]}}, {"type": "Feature", "properties": {"norad_id": 38356, "name": "INTELSAT 19 (IS-19)", "group": "intelsat", "lat": -0.011025823533178101, "lon": -40.40777491760422, "alt_km": 35777.120154243974, "timestamp": "2025-12-10T04:57:29.273853+00:00", "meta": {"OBJECT_NAME": "INTELSAT 19 (IS-19)", "OBJECT_ID": "2012-030A", "EPOCH": "2025-12-09T13:57:53.515296", "MEAN_MOTION": 1.00271733, "ECCENTRICITY": 0.0003532, "INCLINATION": 0.0089, "RA_OF_ASC_NODE": 343.5427, "ARG_OF_PERICENTER": 282.9405, "MEAN_ANOMALY": 187.5649, "EPHEMERIS_TYPE": 0, "CLASSIFICATION_TYPE": "U", "NORAD_CAT_ID": 38356, "ELEMENT_SET_NO": 999, "REV_AT_EPOCH": 4855, "BSTAR": 0, "MEAN_MOTION_DOT": -5.4e-07, "MEAN_MOTION_DDOT": 0}, "tle": {"line1": "1 38356U 12030A   25343.58186939 -.00000054  00000+0  00000+0 0  9995", "line2": "2 38356   0.0089 343.5427 0003532 282.9405 187.5649  1.00271733 48551"}}, "geometry": {"type": "Point", "coordinates": [-40.40777491760422, -0.011025823533178101]}}, {"type": "Feature", "properties": {"norad_id": 38740, "name": "INTELSAT 20 (IS-20)", "group": "intelsat", "lat": -0.0028773230147016164, "lon": -137.92507139785826, "alt_km": 35778.27547806089, "timestamp": "2025-12-10T04:57:29.273864+00:00", "meta": {"OBJECT_NAME": "INTELSAT 20 (IS-20)", "OBJECT_ID": "2012-043A", "EPOCH": "2025-12-09T13:53:50.815968", "MEAN_MOTION": 1.00268403, "ECCENTRICITY": 0.0002557, "INCLINATION": 0.0087, "RA_OF_ASC_NODE": 90.6017, "ARG_OF_PERICENTER": 95.7076, "MEAN_ANOMALY": 169.2304, "EPHEMERIS_TYPE": 0, "CLASSIFICATION_TYPE": "U", "NORAD_CAT_ID": 38740, "ELEMENT_SET_NO": 999, "REV_AT_EPOCH": 4884, "BSTAR": 0, "MEAN_MOTION_DOT": -2.1e-07, "MEAN_MOTION_DDOT": 0}, "tle": {"line1": "1 38740U 12043A   25343.57906037 -.00000021  00000+0  00000+0 0  9998", "line2": "2 38740   0.0087  90.6017 0002557  95.7076 169.2304  1.00268403 48848"}}, "geometry": {"type": "Point", "coordinates": [-137.92507139785826, -0.0028773230147016164]}}, {"type": "Feature", "properties": {"norad_id": 38749, "name": "INTELSAT 21 (IS-21)", "group": "intelsat", "lat": 0.024288008396500152, "lon": 95.54513903708484, "alt_km": 35795.141473802636, "timestamp": "2025-12-10T04:57:29.273877+00:00", "meta": {"OBJECT_NAME": "INTELSAT 21 (IS-21)", "OBJECT_ID": "2012-045A", "EPOCH": "2025-12-09T11:35:04.111008", "MEAN_MOTION": 1.002704, "ECCENTRICITY": 0.0002159, "INCLINATION": 0.0121, "RA_OF_ASC_NODE": 36.6822, "ARG_OF_PERICENTER": 218.8599, "MEAN_ANOMALY": 298.7001, "EPHEMERIS_TYPE": 0, "CLASSIFICATION_TYPE": "U", "NORAD_CAT_ID": 38749, "ELEMENT_SET_NO": 999, "REV_AT_EPOCH": 4862, "BSTAR": 0, "MEAN_MOTION_DOT": -2.83e-06, "MEAN_MOTION_DDOT": 0}, "tle": {"line1": "1 38749U 12045A   25343.48268647 -.00000283  00000+0  00000+0 0  9997", "line2": "2 38749   0.0121  36.6822 0002159 218.8599 298.7001  1.00270400 48624"}}, "geometry": {"type": "Point", "coordinates": [95.54513903708484, 0.024288008396500152]}}, {"type": "Feature", "properties": {"norad_id": 38867, "name": "INTELSAT 23 (IS-23)", "group": "intelsat", "lat": 0.02284614756857907, "lon": 100.47628427685025, "alt_km": 35790.38485936013, "timestamp": "2025-12-10T04:57:29.273889+00:00", "meta": {"OBJECT_NAME": "INTELSAT 23 (IS-23)", "OBJECT_ID": "2012-057A", "EPOCH": "2025-12-09T11:36:33.967008", "MEAN_MOTION": 1.00260409, "ECCENTRICITY": 0.0002031, "INCLINATION": 0.0423, "RA_OF_ASC_NODE": 93.9741, "ARG_OF_PERICENTER": 103.251, "MEAN_ANOMALY": 2.3642, "EPHEMERIS_TYPE": 0, "CLASSIFICATION_TYPE": "U", "NORAD_CAT_ID": 38867, "ELEMENT_SET_NO": 999, "REV_AT_EPOCH": 4805, "BSTAR": 0, "MEAN_MOTION_DOT": -2.82e-06, "MEAN_MOTION_DDOT": 0}, "tle": {"line1": "1 38867U 12057A   25343.48372647 -.00000282  00000+0  00000+0 0  9996", "line2": "2 38867   0.0423  93.9741 0002031 103.2510   2.3642  1.00260409 48050"}}, "geometry": {"type": "Point", "coordinates": [100.47628427685025, 0.02284614756857907]}}, {"type": "Feature", "properties": {"norad_id": 39360, "name": "FM-6", "group": "intelsat", "lat": 0.0035352547916574512, "lon": 37.379229319471214, "alt_km": 35795.42129415253, "timestamp": "2025-12-10T04:57:29.273900+00:00", "meta": {"OBJECT_NAME": "FM-6", "OBJECT_ID": "2013-058A", "EPOCH": "2025-12-09T14:44:01.010112", "MEAN_MOTION": 1.00269266, "ECCENTRICITY": 0.0002848, "INCLINATION": 0.0074, "RA_OF_ASC_NODE": 81.1865, "ARG_OF_PERICENTER": 92.5117, "MEAN_ANOMALY": 9.7598, "EPHEMERIS_TYPE": 0, "CLASSIFICATION_TYPE": "U", "NORAD_CAT_ID": 39360, "ELEMENT_SET_NO": 999, "REV_AT_EPOCH": 4417, "BSTAR": 0, "MEAN_MOTION_DOT": -1.4e-07, "MEAN_MOTION_DDOT": 0}, "tle": {"line1": "1 39360U 13058A   25343.61390058 -.00000014  00000+0  00000+0 0  9991", "line2": "2 39360   0.0074  81.1865 0002848  92.5117   9.7598  1.00269266 44176"}}, "geometry": {"type": "Point", "coordinates": [37.379229319471214, 0.0035352547916574512]}}, {"type": "Feature", "properties": {"norad_id": 40271, "name": "INTELSAT 30 (IS-30)", "group": "intelsat", "lat": 0.02596087364567566, "lon": 58.482707185167534, "alt_km": 35781.80285950443, "timestamp": "2025-12-10T04:57:29.273912+00:00", "meta": {"OBJECT_NAME": "INTELSAT 30 (IS-30)", "OBJECT_ID": "2014-062A", "EPOCH": "2025-12-09T12:22:48.556128", "MEAN_MOTION": 1.00269053, "ECCENTRICITY": 0.00012996, "INCLINATION": 0.0144, "RA_OF_ASC_NODE": 15.4205, "ARG_OF_PERICENTER": 65.9123, "MEAN_ANOMALY": 87.8151, "EPHEMERIS_TYPE": 0, "CLASSIFICATION_TYPE": "U", "NORAD_CAT_ID": 40271, "ELEMENT_SET_NO": 999, "REV_AT_EPOCH": 488, "BSTAR": 0, "MEAN_MOTION_DOT": -1.48e-06, "MEAN_MOTION_DDOT": 0}, "tle": {"line1": "1 40271U 14062A   25343.51583977 -.00000148  00000+0  00000+0 0  9991", "line2": "2 40271   0.0144  15.4205 0001299  65.9123  87.8151  1.00269053  4885"}}, "geometry": {"type": "Point", "coordinates": [58.482707185167534, 0.02596087364567566]}}, {"type": "Feature", "properties": {"norad_id": 40333, "name": "DIRECTV 14", "group": "intelsat", "lat": 0.03622357614328788, "lon": 54.38654704738865, "alt_km": 35786.36503452913, "timestamp": "2025-12-10T04:57:29.273924+00:00", "meta": {"OBJECT_NAME": "DIRECTV 14", "OBJECT_ID": "2014-078B", "EPOCH": "2025-12-09T10:14:01.480992", "MEAN_MOTION": 1.00285429, "ECCENTRICITY": 9.851e-05, "INCLINATION": 0.0183, "RA_OF_ASC_NODE": 330.534, "ARG_OF_PERICENTER": 274.6028, "MEAN_ANOMALY": 247.5776, "EPHEMERIS_TYPE": 0, "CLASSIFICATION_TYPE": "U", "NORAD_CAT_ID": 40333, "ELEMENT_SET_NO": 999, "REV_AT_EPOCH": 4014, "BSTAR": 0, "MEAN_MOTION_DOT": -1.25e-06, "MEAN_MOTION_DDOT": 0}, "tle": {"line1": "1 40333U 14078B   25343.42640603 -.00000125  00000+0  00000+0 0  9992", "line2": "2 40333   0.0183 330.5340 0000985 274.6028 247.5776  1.00285429 40144"}}, "geometry": {"type": "Point", "coordinates": [54.38654704738865, 0.03622357614328788]}}, {"type": "Feature", "properties": {"norad_id": 40663, "name": "DIRECTV 15", "group": "intelsat", "lat": -0.0008360531836996747, "lon": 50.684345083135824, "alt_km": 35787.421814108915, "timestamp": "2025-12-10T04:57:29.273936+00:00", "meta": {"OBJECT_NAME": "DIRECTV 15", "OBJECT_ID": "2015-026A", "EPOCH": "2025-12-09T14:47:45.651840", "MEAN_MOTION": 1.0026916, "ECCENTRICITY": 3e-05, "INCLINATION": 0.0395, "RA_OF_ASC_NODE": 81.8157, "ARG_OF_PERICENTER": 211.0031, "MEAN_ANOMALY": 264.8577, "EPHEMERIS_TYPE": 0, "CLASSIFICATION_TYPE": "U", "NORAD_CAT_ID": 40663, "ELEMENT_SET_NO": 999, "REV_AT_EPOCH": 3856, "BSTAR": 0, "MEAN_MOTION_DOT": -1e-06, "MEAN_MOTION_DDOT": 0}, "tle": {"line1": "1 40663U 15026A   25343.61650060 -.00000100  00000+0  00000+0 0  9994", "line2": "2 40663   0.0395  81.8157 0000300 211.0031 264.8577  1.00269160 38565"}}, "geometry": {"type": "Point", "coordinates": [50.684345083135824, -0.0008360531836996747]}}]}